{
    "links": {
        "self": "http://www.neowsapp.com/rest/v1/neo/3674887?api_key=iIulBulltgU6a56xZRHN4H3l9WmuAYTsLGpBGhQ2"
    },
    "id": "3674887",
    "neo_reference_id": "3674887",
    "name": "(2014 OP2)",
    "designation": "2014 OP2",
    "nasa_jpl_url": "http://ssd.jpl.nasa.gov/sbdb.cgi?sstr=3674887",
    "absolute_magnitude_h": 29.1,
    "estimated_diameter": {
        "kilometers": {
            "estimated_diameter_min": 0.0040230458,
            "estimated_diameter_max": 0.0089958039
        },
        "meters": {
            "estimated_diameter_min": 4.0230457983,
            "estimated_diameter_max": 8.9958038817
        },
        "miles": {
            "estimated_diameter_min": 0.002499804,
            "estimated_diameter_max": 0.0055897317
        },
        "feet": {
            "estimated_diameter_min": 13.198969577,
            "estimated_diameter_max": 29.5137932072
        }
    },
    "is_potentially_hazardous_asteroid": false,
    "close_approach_data": [
        {
            "close_approach_date": "2012-09-10",
            "close_approach_date_full": "2012-Sep-10 16:37",
            "epoch_date_close_approach": 1347295020000,
            "relative_velocity": {
                "kilometers_per_second": "6.053128105",
                "kilometers_per_hour": "21791.261177949",
                "miles_per_hour": "13540.2422580428"
            },
            "miss_distance": {
                "astronomical": "1.9326111907",
                "lunar": "751.7857531823",
                "kilometers": "289114517.666883809",
                "miles": "179647430.9161382042"
            },
            "orbiting_body": "Juptr"
        },
        {
            "close_approach_date": "2014-07-24",
            "close_approach_date_full": "2014-Jul-24 05:00",
            "epoch_date_close_approach": 1406178000000,
            "relative_velocity": {
                "kilometers_per_second": "12.5345637263",
                "kilometers_per_hour": "45124.4294147758",
                "miles_per_hour": "28038.56559942"
            },
            "miss_distance": {
                "astronomical": "0.003709593",
                "lunar": "1.443031677",
                "kilometers": "554947.21136691",
                "miles": "344828.207246958"
            },
            "orbiting_body": "Moon"
        },
        {
            "close_approach_date": "2014-07-24",
            "close_approach_date_full": "2014-Jul-24 08:35",
            "epoch_date_close_approach": 1406190900000,
            "relative_velocity": {
                "kilometers_per_second": "11.6682628922",
                "kilometers_per_hour": "42005.7464117828",
                "miles_per_hour": "26100.737263477"
            },
            "miss_distance": {
                "astronomical": "0.0013345696",
                "lunar": "0.5191475744",
                "kilometers": "199648.769526752",
                "miles": "124055.9928310976"
            },
            "orbiting_body": "Earth"
        }
    ],
    "orbital_data": {
        "orbit_id": "7",
        "orbit_determination_date": "2017-04-06 08:39:34",
        "first_observation_date": "2014-07-25",
        "last_observation_date": "2014-07-31",
        "data_arc_in_days": 6,
        "observations_used": 26,
        "orbit_uncertainty": "7",
        "minimum_orbit_intersection": ".000726234",
        "jupiter_tisserand_invariant": "3.199",
        "epoch_osculation": "2459000.5",
        "eccentricity": ".6184975765807298",
        "semi_major_axis": "2.454456877833175",
        "inclination": "2.050844257737662",
        "ascending_node_longitude": "122.2894816386538",
        "orbital_period": "1404.531670589775",
        "perihelion_distance": ".9363812470714518",
        "perihelion_argument": "141.5580143507528",
        "aphelion_distance": "3.972532508594897",
        "perihelion_time": "2459642.516127502090",
        "mean_anomaly": "195.4427951035802",
        "mean_motion": ".2563131950231017",
        "equinox": "J2000",
        "orbit_class": {
            "orbit_class_type": "APO",
            "orbit_class_description": "Near-Earth asteroid orbits which cross the Earth’s orbit similar to that of 1862 Apollo",
            "orbit_class_range": "a (semi-major axis) > 1.0 AU; q (perihelion) < 1.017 AU"
        }
    },
    "is_sentry_object": false
}